{
  "type": "FeatureCollection",
  "features": [
    {
      "type": "Feature",
      "properties": {
        "norad_id": 67031,
        "name": "STARLINK-36150",
        "group": "last-30-days",
        "lat": -42.13318967219584,
        "lon": 57.39177322454126,
        "alt_km": 312.1535105266221,
        "timestamp": "2025-12-20T16:47:35.026632+00:00",
        "meta_object_name": "STARLINK-36150",
        "meta_object_id": "2025-294B",
        "meta_epoch": "2025-12-20T12:00:02.000160",
        "meta_mean_motion": 15.87849486,
        "meta_eccentricity": 0.0001521,
        "meta_inclination": 42.9998,
        "meta_ra_of_asc_node": 134.7488,
        "meta_arg_of_pericenter": 268.5197,
        "meta_mean_anomaly": 309.078,
        "meta_ephemeris_type": 0,
        "meta_classification_type": "U",
        "meta_norad_cat_id": 67031,
        "meta_element_set_no": 999,
        "meta_rev_at_epoch": 155,
        "meta_bstar": -0.0055087,
        "meta_mean_motion_dot": -0.01350261,
        "meta_mean_motion_ddot": 0,
        "tle_line1": "1 67031U 25294B   25354.50002315 -.01350261  00000+0 -55087-2 0  9990",
        "tle_line2": "2 67031  42.9998 134.7488 0001521 268.5197 309.0780 15.87849486  1550"
      },
      "geometry": {
        "type": "Point",
        "coordinates": [
          57.39177322454126,
          -42.13318967219584
        ]
      }
    },
    {
      "type": "Feature",
      "properties": {
        "norad_id": 67032,
        "name": "STARLINK-36131",
        "group": "last-30-days",
        "lat": -41.345852031571,
        "lon": 62.71336314473301,
        "alt_km": 312.02730325521316,
        "timestamp": "2025-12-20T16:47:35.026644+00:00",
        "meta_object_name": "STARLINK-36131",
        "meta_object_id": "2025-294C",
        "meta_epoch": "2025-12-20T12:00:02.000160",
        "meta_mean_motion": 15.87919298,
        "meta_eccentricity": 0.0001479,
        "meta_inclination": 42.9998,
        "meta_ra_of_asc_node": 134.7387,
        "meta_arg_of_pericenter": 261.3303,
        "meta_mean_anomaly": 320.2764,
        "meta_ephemeris_type": 0,
        "meta_classification_type": "U",
        "meta_norad_cat_id": 67032,
        "meta_element_set_no": 999,
        "meta_rev_at_epoch": 136,
        "meta_bstar": -0.005528,
        "meta_mean_motion_dot": -0.01358554,
        "meta_mean_motion_ddot": 0,
        "tle_line1": "1 67032U 25294C   25354.50002315 -.01358554  00000+0 -55280-2 0  9999",
        "tle_line2": "2 67032  42.9998 134.7387 0001479 261.3303 320.2764 15.87919298  1366"
      },
      "geometry": {
        "type": "Point",
        "coordinates": [
          62.71336314473301,
          -41.345852031571
        ]
      }
    },
    {
      "type": "Feature",
      "properties": {
        "norad_id": 67033,
        "name": "STARLINK-36137",
        "group": "last-30-days",
        "lat": -41.77456223179711,
        "lon": 60.04000369451423,
        "alt_km": 312.07626776174857,
        "timestamp": "2025-12-20T16:47:35.026654+00:00",
        "meta_object_name": "STARLINK-36137",
        "meta_object_id": "2025-294D",
        "meta_epoch": "2025-12-20T12:00:02.000160",
        "meta_mean_motion": 15.87884763,
        "meta_eccentricity": 0.0001514,
        "meta_inclination": 42.9997,
        "meta_ra_of_asc_node": 134.7441,
        "meta_arg_of_pericenter": 264.7149,
        "meta_mean_anomaly": 314.8644,
        "meta_ephemeris_type": 0,
        "meta_classification_type": "U",
        "meta_norad_cat_id": 67033,
        "meta_element_set_no": 999,
        "meta_rev_at_epoch": 136,
        "meta_bstar": -0.0055128,
        "meta_mean_motion_dot": -0.01353234,
        "meta_mean_motion_ddot": 0,
        "tle_line1": "1 67033U 25294D   25354.50002315 -.01353234  00000+0 -55128-2 0  9991",
        "tle_line2": "2 67033  42.9997 134.7441 0001514 264.7149 314.8644 15.87884763  1366"
      },
      "geometry": {
        "type": "Point",
        "coordinates": [
          60.04000369451423,
          -41.77456223179711
        ]
      }
    },
    {
      "type": "Feature",
      "properties": {
        "norad_id": 67034,
        "name": "STARLINK-36140",
        "group": "last-30-days",
        "lat": -40.807941742307506,
        "lon": 65.58566201321095,
        "alt_km": 311.72636003202115,
        "timestamp": "2025-12-20T16:47:35.026664+00:00",
        "meta_object_name": "STARLINK-36140",
        "meta_object_id": "2025-294E",
        "meta_epoch": "2025-12-20T06:00:02.999808",
        "meta_mean_motion": 15.88668928,
        "meta_eccentricity": 0.00016534,
        "meta_inclination": 42.9997,
        "meta_ra_of_asc_node": 136.2775,
        "meta_arg_of_pericenter": 258.8744,
        "meta_mean_anomaly": 333.7865,
        "meta_ephemeris_type": 0,
        "meta_classification_type": "U",
        "meta_norad_cat_id": 67034,
        "meta_element_set_no": 999,
        "meta_rev_at_epoch": 132,
        "meta_bstar": -0.0052207572,
        "meta_mean_motion_dot": -0.01335981,
        "meta_mean_motion_ddot": 0,
        "tle_line1": "1 67034U 25294E   25354.25003472 -.01335981  00000+0 -52208-2 0  9994",
        "tle_line2": "2 67034  42.9997 136.2775 0001653 258.8744 333.7865 15.88668928  1328"
      },
      "geometry": {
        "type": "Point",
        "coordinates": [
          65.58566201321095,
          -40.807941742307506
        ]
      }
    },
    {
      "type": "Feature",
      "properties": {
        "norad_id": 67035,
        "name": "STARLINK-36085",
        "group": "last-30-days",
        "lat": -39.508369204519724,
        "lon": 71.2468795286631,
        "alt_km": 311.7315187636368,
        "timestamp": "2025-12-20T16:47:35.026674+00:00",
        "meta_object_name": "STARLINK-36085",
        "meta_object_id": "2025-294F",
        "meta_epoch": "2025-12-20T12:00:02.000160",
        "meta_mean_motion": 15.88016699,
        "meta_eccentricity": 0.0001498,
        "meta_inclination": 43,
        "meta_ra_of_asc_node": 134.7218,
        "meta_arg_of_pericenter": 263.5265,
        "meta_mean_anomaly": 324.7838,
        "meta_ephemeris_type": 0,
        "meta_classification_type": "U",
        "meta_norad_cat_id": 67035,
        "meta_element_set_no": 999,
        "meta_rev_at_epoch": 136,
        "meta_bstar": -0.0056203,
        "meta_mean_motion_dot": -0.01384309,
        "meta_mean_motion_ddot": 0,
        "tle_line1": "1 67035U 25294F   25354.50002315 -.01384309  00000+0 -56203-2 0  9995",
        "tle_line2": "2 67035  43.0000 134.7218 0001498 263.5265 324.7838 15.88016699  1365"
      },
      "geometry": {
        "type": "Point",
        "coordinates": [
          71.2468795286631,
          -39.508369204519724
        ]
      }
    },
    {
      "type": "Feature",
      "properties": {
        "norad_id": 67036,
        "name": "STARLINK-36125",
        "group": "last-30-days",
        "lat": -40.19437901198985,
        "lon": 68.43759075785721,
        "alt_km": 311.8288022958177,
        "timestamp": "2025-12-20T16:47:35.026684+00:00",
        "meta_object_name": "STARLINK-36125",
        "meta_object_id": "2025-294G",
        "meta_epoch": "2025-12-20T12:00:02.000160",
        "meta_mean_motion": 15.87982739,
        "meta_eccentricity": 0.0001541,
        "meta_inclination": 42.9998,
        "meta_ra_of_asc_node": 134.7277,
        "meta_arg_of_pericenter": 259.9207,
        "meta_mean_anomaly": 326.1402,
        "meta_ephemeris_type": 0,
        "meta_classification_type": "U",
        "meta_norad_cat_id": 67036,
        "meta_element_set_no": 999,
        "meta_rev_at_epoch": 155,
        "meta_bstar": -0.0055713,
        "meta_mean_motion_dot": -0.0137174,
        "meta_mean_motion_ddot": 0,
        "tle_line1": "1 67036U 25294G   25354.50002315 -.01371740  00000+0 -55713-2 0  9996",
        "tle_line2": "2 67036  42.9998 134.7277 0001541 259.9207 326.1402 15.87982739  1559"
      },
      "geometry": {
        "type": "Point",
        "coordinates": [
          68.43759075785721,
          -40.19437901198985
        ]
      }
    },
    {
      "type": "Feature",
      "properties": {
        "norad_id": 67037,
        "name": "STARLINK-35732",
        "group": "last-30-days",
        "lat": -38.69793873281148,
        "lon": 74.19767362661266,
        "alt_km": 311.6529697933711,
        "timestamp": "2025-12-20T16:47:35.026694+00:00",
        "meta_object_name": "STARLINK-35732",
        "meta_object_id": "2025-294H",
        "meta_epoch": "2025-12-20T12:00:02.000160",
        "meta_mean_motion": 15.88043035,
        "meta_eccentricity": 0.000153,
        "meta_inclination": 42.9998,
        "meta_ra_of_asc_node": 134.716,
        "meta_arg_of_pericenter": 260.9542,
        "meta_mean_anomaly": 329.7725,
        "meta_ephemeris_type": 0,
        "meta_classification_type": "U",
        "meta_norad_cat_id": 67037,
        "meta_element_set_no": 999,
        "meta_rev_at_epoch": 147,
        "meta_bstar": -0.0056199,
        "meta_mean_motion_dot": -0.01385853,
        "meta_mean_motion_ddot": 0,
        "tle_line1": "1 67037U 25294H   25354.50002315 -.01385853  00000+0 -56199-2 0  9996",
        "tle_line2": "2 67037  42.9998 134.7160 0001530 260.9542 329.7725 15.88043035  1479"
      },
      "geometry": {
        "type": "Point",
        "coordinates": [
          74.19767362661266,
          -38.69793873281148
        ]
      }
    }
  ]
}